{
  "type": "FeatureCollection",
  "features": [
    {
      "type": "Feature",
      "properties": {
        "norad_id": 30274,
        "name": "FENGYUN 1C DEB",
        "group": "fengyun-1c-debris",
        "lat": -48.3602973043077,
        "lon": -61.706763152105566,
        "alt_km": 723.8780553321003,
        "timestamp": "2025-12-24T22:42:22.306326+00:00",
        "meta_object_name": "FENGYUN 1C DEB",
        "meta_object_id": "1999-025YK",
        "meta_epoch": "2025-12-24T07:03:55.571616",
        "meta_mean_motion": 14.51845032,
        "meta_eccentricity": 0.00047081,
        "meta_inclination": 99.3017,
        "meta_ra_of_asc_node": 128.1951,
        "meta_arg_of_pericenter": 189.5907,
        "meta_mean_anomaly": 235.2477,
        "meta_ephemeris_type": 0,
        "meta_classification_type": "U",
        "meta_norad_cat_id": 30274,
        "meta_element_set_no": 999,
        "meta_rev_at_epoch": 98378,
        "meta_bstar": 0.0027418976,
        "meta_mean_motion_dot": 0.00011006,
        "meta_mean_motion_ddot": 0,
        "tle_line1": "1 30274U 99025YK  25358.29439319  .00011006  00000+0  27419-2 0  9996",
        "tle_line2": "2 30274  99.3017 128.1951 0004708 189.5907 235.2477 14.51845032983780"
      },
      "geometry": {
        "type": "Point",
        "coordinates": [
          -61.706763152105566,
          -48.3602973043077
        ]
      }
    },
    {
      "type": "Feature",
      "properties": {
        "norad_id": 30275,
        "name": "FENGYUN 1C DEB",
        "group": "fengyun-1c-debris",
        "lat": -77.62020050829814,
        "lon": -140.3604278064001,
        "alt_km": 757.3350024487063,
        "timestamp": "2025-12-24T22:42:22.306336+00:00",
        "meta_object_name": "FENGYUN 1C DEB",
        "meta_object_id": "1999-025YL",
        "meta_epoch": "2025-12-24T05:01:50.589120",
        "meta_mean_motion": 14.45457671,
        "meta_eccentricity": 0.00397205,
        "meta_inclination": 98.6274,
        "meta_ra_of_asc_node": 82.6559,
        "meta_arg_of_pericenter": 153.3643,
        "meta_mean_anomaly": 237.1074,
        "meta_ephemeris_type": 0,
        "meta_classification_type": "U",
        "meta_norad_cat_id": 30275,
        "meta_element_set_no": 999,
        "meta_rev_at_epoch": 98250,
        "meta_bstar": 0.0023338767,
        "meta_mean_motion_dot": 8.263e-05,
        "meta_mean_motion_ddot": 0,
        "tle_line1": "1 30275U 99025YL  25358.20961330  .00008263  00000+0  23339-2 0  9999",
        "tle_line2": "2 30275  98.6274  82.6559 0039720 153.3643 237.1074 14.45457671982508"
      },
      "geometry": {
        "type": "Point",
        "coordinates": [
          -140.3604278064001,
          -77.62020050829814
        ]
      }
    },
    {
      "type": "Feature",
      "properties": {
        "norad_id": 30276,
        "name": "FENGYUN 1C DEB",
        "group": "fengyun-1c-debris",
        "lat": 59.63442592963909,
        "lon": -93.89034246074868,
        "alt_km": 787.8799525865788,
        "timestamp": "2025-12-24T22:42:22.306346+00:00",
        "meta_object_name": "FENGYUN 1C DEB",
        "meta_object_id": "1999-025YM",
        "meta_epoch": "2025-12-23T10:48:56.452032",
        "meta_mean_motion": 14.27085193,
        "meta_eccentricity": 0.00239466,
        "meta_inclination": 98.859,
        "meta_ra_of_asc_node": 69.1574,
        "meta_arg_of_pericenter": 60.172,
        "meta_mean_anomaly": 300.1837,
        "meta_ephemeris_type": 0,
        "meta_classification_type": "U",
        "meta_norad_cat_id": 30276,
        "meta_element_set_no": 999,
        "meta_rev_at_epoch": 97683,
        "meta_bstar": 0.0012149886,
        "meta_mean_motion_dot": 2.925e-05,
        "meta_mean_motion_ddot": 0,
        "tle_line1": "1 30276U 99025YM  25357.45065338  .00002925  00000+0  12150-2 0  9997",
        "tle_line2": "2 30276  98.8590  69.1574 0023946  60.1720 300.1837 14.27085193976836"
      },
      "geometry": {
        "type": "Point",
        "coordinates": [
          -93.89034246074868,
          59.63442592963909
        ]
      }
    },
    {
      "type": "Feature",
      "properties": {
        "norad_id": 30277,
        "name": "FENGYUN 1C DEB",
        "group": "fengyun-1c-debris",
        "lat": -41.405762764062196,
        "lon": 77.66281290720599,
        "alt_km": 942.646088975087,
        "timestamp": "2025-12-24T22:42:22.306357+00:00",
        "meta_object_name": "FENGYUN 1C DEB",
        "meta_object_id": "1999-025YN",
        "meta_epoch": "2025-12-24T04:29:32.870400",
        "meta_mean_motion": 14.13633303,
        "meta_eccentricity": 0.01240012,
        "meta_inclination": 98.9716,
        "meta_ra_of_asc_node": 68.894,
        "meta_arg_of_pericenter": 145.7503,
        "meta_mean_anomaly": 272.1792,
        "meta_ephemeris_type": 0,
        "meta_classification_type": "U",
        "meta_norad_cat_id": 30277,
        "meta_element_set_no": 999,
        "meta_rev_at_epoch": 96951,
        "meta_bstar": 0.0011860562,
        "meta_mean_motion_dot": 2.365e-05,
        "meta_mean_motion_ddot": 0,
        "tle_line1": "1 30277U 99025YN  25358.18718600  .00002365  00000+0  11861-2 0  9992",
        "tle_line2": "2 30277  98.9716  68.8940 0124001 145.7503 272.1792 14.13633303969516"
      },
      "geometry": {
        "type": "Point",
        "coordinates": [
          77.66281290720599,
          -41.405762764062196
        ]
      }
    },
    {
      "type": "Feature",
      "properties": {
        "norad_id": 30279,
        "name": "FENGYUN 1C DEB",
        "group": "fengyun-1c-debris",
        "lat": -23.98988877566466,
        "lon": 110.03484283841505,
        "alt_km": 973.516965718065,
        "timestamp": "2025-12-24T22:42:22.306367+00:00",
        "meta_object_name": "FENGYUN 1C DEB",
        "meta_object_id": "1999-025YQ",
        "meta_epoch": "2025-12-24T07:08:46.015584",
        "meta_mean_motion": 14.23149184,
        "meta_eccentricity": 0.02197004,
        "meta_inclination": 99.1516,
        "meta_ra_of_asc_node": 293.4744,
        "meta_arg_of_pericenter": 39.7554,
        "meta_mean_anomaly": 84.0502,
        "meta_ephemeris_type": 0,
        "meta_classification_type": "U",
        "meta_norad_cat_id": 30279,
        "meta_element_set_no": 999,
        "meta_rev_at_epoch": 97775,
        "meta_bstar": 0.00098094225,
        "meta_mean_motion_dot": 2.79e-05,
        "meta_mean_motion_ddot": 0,
        "tle_line1": "1 30279U 99025YQ  25358.29775481  .00002790  00000+0  98094-3 0  9992",
        "tle_line2": "2 30279  99.1516 293.4744 0219700  39.7554  84.0502 14.23149184977750"
      },
      "geometry": {
        "type": "Point",
        "coordinates": [
          110.03484283841505,
          -23.98988877566466
        ]
      }
    },
    {
      "type": "Feature",
      "properties": {
        "norad_id": 30280,
        "name": "FENGYUN 1C DEB",
        "group": "fengyun-1c-debris",
        "lat": -34.98188556384343,
        "lon": -5.988374684665975,
        "alt_km": 854.8337834773856,
        "timestamp": "2025-12-24T22:42:22.306377+00:00",
        "meta_object_name": "FENGYUN 1C DEB",
        "meta_object_id": "1999-025YR",
        "meta_epoch": "2025-12-23T23:05:51.931104",
        "meta_mean_motion": 13.98332891,
        "meta_eccentricity": 0.0079926,
        "meta_inclination": 98.7754,
        "meta_ra_of_asc_node": 346.8657,
        "meta_arg_of_pericenter": 298.2178,
        "meta_mean_anomaly": 116.8403,
        "meta_ephemeris_type": 0,
        "meta_classification_type": "U",
        "meta_norad_cat_id": 30280,
        "meta_element_set_no": 999,
        "meta_rev_at_epoch": 96563,
        "meta_bstar": 0.00010353,
        "meta_mean_motion_dot": 1.09e-06,
        "meta_mean_motion_ddot": 0,
        "tle_line1": "1 30280U 99025YR  25357.96240661  .00000109  00000+0  10353-3 0  9998",
        "tle_line2": "2 30280  98.7754 346.8657 0079926 298.2178 116.8403 13.98332891965633"
      },
      "geometry": {
        "type": "Point",
        "coordinates": [
          -5.988374684665975,
          -34.98188556384343
        ]
      }
    },
    {
      "type": "Feature",
      "properties": {
        "norad_id": 30281,
        "name": "FENGYUN 1C DEB",
        "group": "fengyun-1c-debris",
        "lat": -1.0520706053050017,
        "lon": -11.3968131527413,
        "alt_km": 879.646622124349,
        "timestamp": "2025-12-24T22:42:22.306387+00:00",
        "meta_object_name": "FENGYUN 1C DEB",
        "meta_object_id": "1999-025YS",
        "meta_epoch": "2025-12-23T23:08:19.003776",
        "meta_mean_motion": 14.10483782,
        "meta_eccentricity": 0.0028297,
        "meta_inclination": 98.7577,
        "meta_ra_of_asc_node": 347.4845,
        "meta_arg_of_pericenter": 204.447,
        "meta_mean_anomaly": 211.0059,
        "meta_ephemeris_type": 0,
        "meta_classification_type": "U",
        "meta_norad_cat_id": 30281,
        "meta_element_set_no": 999,
        "meta_rev_at_epoch": 97379,
        "meta_bstar": 0.00018452,
        "meta_mean_motion_dot": 2.87e-06,
        "meta_mean_motion_ddot": 0,
        "tle_line1": "1 30281U 99025YS  25357.96410884  .00000287  00000+0  18452-3 0  9990",
        "tle_line2": "2 30281  98.7577 347.4845 0028297 204.4470 211.0059 14.10483782973794"
      },
      "geometry": {
        "type": "Point",
        "coordinates": [
          -11.3968131527413,
          -1.0520706053050017
        ]
      }
    }
  ]
}